KUIPER-00044            
1 64505U 25134F   25356.83367447  .00003477  00000+0  48488-3 0  9993
2 64505  51.8987 226.4515 0011869  22.1133 338.0339 14.79920338 28502
KUIPER-00046            
1 64506U 25134G   25357.63432823  .00003484  00000+0  47683-3 0  9998
2 64506  51.8961 219.2317 0012941  33.9619 326.2169 14.80706278 28671
KUIPER-00047            
1 64507U 25134H   25355.98260270 -.00001633  00000+0 -17092-3 0  9997
2 64507  51.8988 198.0712 0009143  43.0076 317.1601 14.83011409 28828
KUIPER-00048            
1 64508U 25134J   25357.81307490  .00002630  00000+0  37401-3 0  9990
2 64508  51.8965 191.1097 0002737 167.7870 192.3159 14.79928865 29080
KUIPER-00049            
1 64509U 25134K   25356.98759845  .00001426  00000+0  21612-3 0  9992
2 64509  51.8979 208.2314 0003001  48.2194 311.9024 14.79925507 28770
KUIPER-00050            
1 64510U 25134L   25357.52808612  .00003956  00000+0  36435-3 0  9991
2 64510  51.8880 198.0259 0005126  71.1113 289.0412 14.96757624 28962
KUIPER-00051            
1 64511U 25134M   25356.99038431  .00008761  00000+0  11778-2 0  9997
2 64511  51.8986 205.7872 0002847  52.6162 307.5059 14.79894657 28807
KUIPER-00052            
1 64512U 25134N   25356.74225110  .00246178  00000+0  16744-2 0  9997
2 64512  51.8611 143.7584 0002278 130.0039 230.1163 15.73622933 29636
